$$SOE
2461302.500000000, A.D. 2026-Sep-19 00:00:00.0000, -2.588364647976460E+08, 3.259007882143085E+08, 5.040017728338480E+06,
2461309.500000000, A.D. 2026-Sep-26 00:00:00.0000, -2.661715317245315E+08, 3.195984611569343E+08, 6.020486030354947E+06,
2461316.500000000, A.D. 2026-Oct-03 00:00:00.0000, -2.733272602385237E+08, 3.130807673500988E+08, 6.996896087340891E+06,
2461323.500000000, A.D. 2026-Oct-10 00:00:00.0000, -2.802984213386340E+08, 3.063516422081795E+08, 7.968578366464838E+06,
2461330.500000000, A.D. 2026-Oct-17 00:00:00.0000, -2.870798154756016E+08, 2.994151022316360E+08, 8.934861553561628E+06,
2461337.500000000, A.D. 2026-Oct-24 00:00:00.0000, -2.936662709740012E+08, 2.922752480186306E+08, 9.895072246916175E+06,
2461344.500000000, A.D. 2026-Oct-31 00:00:00.0000, -3.000526425298527E+08, 2.849362673195505E+08, 1.084853463208099E+07,
2461351.500000000, A.D. 2026-Nov-07 00:00:00.0000, -3.062338094510977E+08, 2.774024382101467E+08, 1.179457011329266E+07,
2461358.500000000, A.D. 2026-Nov-14 00:00:00.0000, -3.122046734476146E+08, 2.696781332722902E+08, 1.273249695628661E+07,
2461365.500000000, A.D. 2026-Nov-21 00:00:00.0000, -3.179601577925048E+08, 2.617678254667786E+08, 1.366163016514136E+07,
2461372.500000000, A.D. 2026-Nov-28 00:00:00.0000, -3.234952088635684E+08, 2.536760926952403E+08, 1.458128143968038E+07,
2461379.500000000, A.D. 2026-Dec-05 00:00:00.0000, -3.288047964528106E+08, 2.454076203979324E+08, 1.549075882896470E+07,
2461386.500000000, A.D. 2026-Dec-12 00:00:00.0000, -3.338839126894747E+08, 2.369672052978923E+08, 1.638936632125719E+07,
2461393.500000000, A.D. 2026-Dec-19 00:00:00.0000, -3.387275714801877E+08, 2.283597603014460E+08, 1.727640354518585E+07,
2461400.500000000, A.D. 2026-Dec-26 00:00:00.0000, -3.433308086237364E+08, 2.195903196932679E+08, 1.815116552547620E+07,
2461407.500000000, A.D. 2027-Jan-02 00:00:00.0000, -3.476886823381341E+08, 2.106640444396565E+08, 1.901294245376277E+07,
2461414.500000000, A.D. 2027-Jan-09 00:00:00.0000, -3.517962740968537E+08, 2.015862276227655E+08, 1.986101946683505E+07,
2461421.500000000, A.D. 2027-Jan-16 00:00:00.0000, -3.556486897543378E+08, 1.923623000149266E+08, 2.069467643123784E+07,
2461428.500000000, A.D. 2027-Jan-23 00:00:00.0000, -3.592410609339142E+08, 1.829978357517649E+08, 2.151318772830106E+07,
2461435.500000000, A.D. 2027-Jan-30 00:00:00.0000, -3.625685465147188E+08, 1.734985580546120E+08, 2.231582202023618E+07,
2461442.500000000, A.D. 2027-Feb-06 00:00:00.0000, -3.656263338213838E+08, 1.638703453424951E+08, 2.310184198818249E+07,
2461449.500000000, A.D. 2027-Feb-13 00:00:00.0000, -3.684096400070543E+08, 1.541192389553764E+08, 2.387050418637273E+07,
2461456.500000000, A.D. 2027-Feb-20 00:00:00.0000, -3.709137160252118E+08, 1.442514517002946E+08, 2.462105916697697E+07,
2461463.500000000, A.D. 2027-Feb-27 00:00:00.0000, -3.731338518254183E+08, 1.342733740100425E+08, 2.535275148752838E+07,
2461470.500000000, A.D. 2027-Mar-06 00:00:00.0000, -3.750653797806721E+08, 1.241915796363399E+08, 2.606481948383100E+07,
2461477.500000000, A.D. 2027-Mar-13 00:00:00.0000, -3.767036779744279E+08, 1.140128329186361E+08, 2.675649512506695E+07,
2461484.500000000, A.D. 2027-Mar-20 00:00:00.0000, -3.780441745133492E+08, 1.037440967839791E+08, 2.742700398929049E+07,
2461491.500000000, A.D. 2027-Mar-27 00:00:00.0000, -3.790823527042808E+08, 9.339254091967881E+07, 2.807556529944977E+07,
2461498.500000000, A.D. 2027-Apr-03 00:00:00.0000, -3.798137569348534E+08, 8.296555005962054E+07, 2.870139200161280E+07,
2461505.500000000, A.D. 2027-Apr-10 00:00:00.0000, -3.802339992418080E+08, 7.247073239332619E+07, 2.930369088642823E+07,
2461512.500000000, A.D. 2027-Apr-17 00:00:00.0000, -3.803387665932449E+08, 6.191592806707847E+07, 2.988166275589165E+07,
2461519.500000000, A.D. 2027-Apr-24 00:00:00.0000, -3.801238288561847E+08, 5.130921769552021E+07, 3.043450262875266E+07,
2461526.500000000, A.D. 2027-May-01 00:00:00.0000, -3.795850472023450E+08, 4.065893088808769E+07, 3.096139996540459E+07,
2461533.500000000, A.D. 2027-May-08 00:00:00.0000, -3.787183826990300E+08, 2.997365551012652E+07, 3.146153895162818E+07,
2461540.500000000, A.D. 2027-May-15 00:00:00.0000, -3.775199066387935E+08, 1.926224859715887E+07, 3.193409906317457E+07,
2461547.500000000, A.D. 2027-May-22 00:00:00.0000, -3.759858142338583E+08, 8.533846289118519E+06, 3.237825585026687E+07,
2461554.500000000, A.D. 2027-May-29 00:00:00.0000, -3.741124383854944E+08, -2.202128729522845E+06, 3.279318152267323E+07,
2461561.500000000, A.D. 2027-Jun-05 00:00:00.0000, -3.718962627062976E+08, -1.293595920388422E+07, 3.317804551897918E+07,
2461568.500000000, A.D. 2027-Jun-12 00:00:00.0000, -3.693339358652857E+08, -2.365762432922916E+07, 3.353201528836722E+07,
2461575.500000000, A.D. 2027-Jun-19 00:00:00.0000, -3.664222876557800E+08, -3.435679082778144E+07, 3.385425724857974E+07,
2461582.500000000, A.D. 2027-Jun-26 00:00:00.0000, -3.631583465788467E+08, -4.502280442568492E+07, 3.414393788392267E+07,
2461589.500000000, A.D. 2027-Jul-03 00:00:00.0000, -3.595393588808347E+08, -5.564468181422807E+07, 3.440022498339164E+07,
2461596.500000000, A.D. 2027-Jul-10 00:00:00.0000, -3.555628090769183E+08, -6.621110319168477E+07, 3.462228902825215E+07,
2461603.500000000, A.D. 2027-Jul-17 00:00:00.0000, -3.512264419913256E+08, -7.671040554350819E+07, 3.480930473508625E+07,
2461610.500000000, A.D. 2027-Jul-24 00:00:00.0000, -3.465282862222217E+08, -8.713057685706063E+07, 3.496045274787096E+07,
2461617.500000000, A.D. 2027-Jul-31 00:00:00.0000, -3.414666786797847E+08, -9.745925118408711E+07, 3.507492147408029E+07,
2461624.500000000, A.D. 2027-Aug-07 00:00:00.0000, -3.360402904513288E+08, -1.076837035644375E+08, 3.515190919102538E+07,
2461631.500000000, A.D. 2027-Aug-14 00:00:00.0000, -3.302481563392692E+08, -1.177908452483759E+08, 3.519062662647739E+07,
2461638.500000000, A.D. 2027-Aug-21 00:00:00.0000, -3.240897074912853E+08, -1.277672227863170E+08, 3.519029969602925E+07,
2461645.500000000, A.D. 2027-Aug-28 00:00:00.0000, -3.175648037193021E+08, -1.375990200054154E+08, 3.515017219554301E+07,
2461652.500000000, A.D. 2027-Sep-04 00:00:00.0000, -3.106737666968743E+08, -1.472720606097846E+08, 3.506950877566505E+07,
2461659.500000000, A.D. 2027-Sep-11 00:00:00.0000, -3.034174154158171E+08, -1.567718123253458E+08, 3.494759828509688E+07,
2461666.500000000, A.D. 2027-Sep-18 00:00:00.0000, -2.957971037331581E+08, -1.660833935213921E+08, 3.478375742899159E+07,
2461673.500000000, A.D. 2027-Sep-25 00:00:00.0000, -2.878147597190560E+08, -1.751915826857161E+08, 3.457733472584799E+07,
2461680.500000000, A.D. 2027-Oct-02 00:00:00.0000, -2.794729266345803E+08, -1.840808310386668E+08, 3.432771476654140E+07,
2461687.500000000, A.D. 2027-Oct-09 00:00:00.0000, -2.707748053765722E+08, -1.927352786204655E+08, 3.403432277766497E+07,
2461694.500000000, A.D. 2027-Oct-16 00:00:00.0000, -2.617242981413596E+08, -2.011387742576835E+08, 3.369662948031062E+07,
2461701.500000000, A.D. 2027-Oct-23 00:00:00.0000, -2.523260528206636E+08, -2.092748997840182E+08, 3.331415621932554E+07,
2461708.500000000, A.D. 2027-Oct-30 00:00:00.0000, -2.425855074837943E+08, -2.171269982818509E+08, 3.288648037549454E+07,
2461715.500000000, A.D. 2027-Nov-06 00:00:00.0000, -2.325089357826916E+08, -2.246782055884719E+08, 3.241324125184966E+07,
2461722.500000000, A.D. 2027-Nov-13 00:00:00.0000, -2.221034948709442E+08, -2.319114875046933E+08, 3.189414643195724E+07,
2461729.500000000, A.D. 2027-Nov-20 00:00:00.0000, -2.113772724697804E+08, -2.388096852399927E+08, 3.132897814363202E+07,
2461736.500000000, A.D. 2027-Nov-27 00:00:00.0000, -2.003393309253805E+08, -2.453555664537908E+08, 3.071759969279449E+07,
2461743.500000000, A.D. 2027-Dec-04 00:00:00.0000, -1.889997496647824E+08, -2.515318812640714E+08, 3.005996218964649E+07,
2461750.500000000, A.D. 2027-Dec-11 00:00:00.0000, -1.773696659044881E+08, -2.573214244210519E+08, 2.935611149062614E+07,
2461757.500000000, A.D. 2027-Dec-18 00:00:00.0000, -1.654613125607584E+08, -2.627071041550153E+08, 2.860619524404542E+07,
2461764.500000000, A.D. 2027-Dec-25 00:00:00.0000, -1.532880523587869E+08, -2.676720177936402E+08, 2.781046995543852E+07,
2461771.500000000, A.D. 2028-Jan-01 00:00:00.0000, -1.408644071821497E+08, -2.721995341322888E+08, 2.696930798990777E+07,
$$EOE